{"fetched_at":"2026-03-29T16:36:15Z","count":15609,"tles":[{"name":"STARLINK-31608","line1":"1 59397U 24062X   26087.60412618  .00000644  00000+0  33889-4 0  9996","line2":"2 59397  53.1610 168.0600 0001458 114.1734 245.9419 15.30190802112514","category":"Starlink"}]}